"","id","address","city","state","zip","country","lat","lng"
"1",300261,"1350 Whalley Ave","New Haven","CT",6515,"US",41.331862,-72.974466
"2",300263,"132 W Main St","Meriden","CT",6451,"US",41.538017,-72.807372
"3",300283,"1900 Dixwell Ave","Hamden","CT",6514,"US",41.363606,-72.923389
"4",300284,"1338 Boston Post Rd","Milford","CT",6460,"US",41.239047,-73.035461
"5",300289,"1182 New Haven Rd","Naugatuck","CT",6770,"US",41.468639,-73.023658
"6",300292,"368 Route 12","Groton","CT",6340,"US",41.371905,-72.072075
"7",300312,"75 Airport Rd","Hartford","CT",6114,"US",41.738017,-72.667604
"8",300339,"415 N. Main St","Southington","CT",6489,"US",41.610986,-72.875903
"9",300340,"1084 Main St","East Hartford","CT",6108,"US",41.772464,-72.641714
"10",300341,"595 Winsted Rd","Torrington","CT",6790,"US",41.828055,-73.110093
"11",300342,"593 Post Rd","Fairfield","CT",6824,"US",41.148506,-73.245258
"12",300343,"112 N Main St","Branford","CT",6405,"US",41.286369,-72.817094
"13",300344,"201 Thomaston Ave","Waterbury","CT",6702,"US",41.561778,-73.054078
"14",300345,"12 Boston Post Rd","West Haven","CT",6516,"US",41.296328,-72.951217
"15",300348,"880 Barnum Avenue Cutoff","Stratford","CT",6497,"US",41.199067,-73.129694
"16",300396,"375 E Putnam Ave","Cos Cob","CT",6807,"US",41.039322,-73.596356
"17",300448,"101 White St","Danbury","CT",6810,"US",41.397723,-73.451265
"18",300455,"81 Church St","New Haven","CT",6510,"US",41.305365,-72.926059
"19",300477,"450 New Park Ave","West Hartford","CT",6110,"US",41.743101,-72.716136
"20",300512,"225 Silas Deane Hwy","Wethersfield","CT",6109,"US",41.721033,-72.667883
"21",300558,"744 Boston Post Rd","Old Saybrook","CT",6475,"US",41.294736,-72.379742
"22",300570,"4150 Main St","Bridgeport","CT",6606,"US",41.216977,-73.213975
"23",300658,"970 Hartford Tpke","Waterford","CT",6385,"US",41.386531,-72.159433
"24",300668,"1015 Main St","Willimantic","CT",6226,"US",41.713088,-72.218844
"25",300669,"856 Queen St","Southington","CT",6489,"US",41.640014,-72.874464
"26",300787,"74 State Route 37","New Fairfield","CT",6812,"US",41.465883,-73.482103
"27",300838,"79 Homer St","Waterbury","CT",6704,"US",41.586183,-73.046992
"28",300849,"411 W Main St","Stamford","CT",6902,"US",41.048264,-73.554819
"29",300875,"1174 Main St","Watertown","CT",6795,"US",41.592792,-73.109244
"30",300900,"495 S Main St","Thomaston","CT",6787,"US",41.661678,-73.0796
"31",300921,"100 Hawley Ln","Trumbull","CT",6611,"US",41.232183,-73.152678
"32",300968,"2 Mill Ridge Rd","Danbury","CT",6811,"US",41.388843,-73.481033
"33",300973,"83 Talcottville Rd","Vernon Rockville","CT",6066,"US",41.829403,-72.496363
"34",301076,"544 Connecticut Ave","Norwalk","CT",6854,"US",41.097308,-73.444703
"35",301081,"382 Vauxhall St","New London","CT",6320,"US",41.367095,-72.117435
"36",301333,"858 W Main St","Branford","CT",6405,"US",41.276475,-72.836483
"37",301400,"136 Washington Ave","North Haven","CT",6473,"US",41.396297,-72.854694
"38",301587,"2 Meadow St","Naugatuck","CT",6770,"US",41.486823,-73.058016
"39",301610,"102 Boston Post Rd","Waterford","CT",6385,"US",41.341592,-72.122525
"40",301629,"282 S Main St","Naugatuck","CT",6770,"US",41.485994,-73.050331
"41",301654,"397 Cromwell Ave","Rocky Hill","CT",6067,"US",41.659775,-72.678837
"42",301731,"12 Danbury Rd","New Milford","CT",6776,"US",41.573658,-73.416833
"43",301753,"760 Park Ave","Bloomfield","CT",6002,"US",41.828488,-72.731447
"44",301764,"219 East Ave","Norwalk","CT",6855,"US",41.104323,-73.40459
"45",301904,"2427 Main St","Bridgeport","CT",6606,"US",41.19587,-73.20014
"46",301928,"2586 E Main St","Waterbury","CT",6705,"US",41.541426,-72.997199
"47",302040,"200 Tunxis Hill Rd","Fairfield","CT",6432,"US",41.176747,-73.226983
"48",302069,"200 Sargent Dr","New Haven","CT",6511,"US",41.292998,-72.920928
"49",302230,"855 Farmington Ave","Bristol","CT",6010,"US",41.693477,-72.915003
"50",302380,"50 Union Ave/Union RR Station","New Haven","CT",6519,"US",41.297672,-72.926556
"51",302518,"71 Oxford Rd","Oxford","CT",6478,"US",41.405734,-73.093032
"52",302575,"641 Norwich","Montville","CT",6353,"US",41.443161,-72.1043
"53",302601,"271 W Putnam Ave","Greenwich","CT",6830,"US",41.024362,-73.63575
"54",302602,"940 Dixwell Ave","Hamden","CT",6514,"US",41.339011,-72.935378
"55",302672,"502 Saw Mill Rd","West Haven","CT",6516,"US",41.269131,-72.974822
"56",302697,"51 York St","New Haven","CT",6511,"US",41.305252,-72.933927
"57",302701,"4 East St","New Milford","CT",6776,"US",41.577197,-73.408392
"58",302769,"91 Frontage Rd","East Haven","CT",6512,"US",41.286847,-72.880186
"59",302801,"50 Union Ave","New Haven","CT",6519,"US",41.297672,-72.926556
"60",302807,"270 Federal Rd","Brookfield","CT",6804,"US",41.440967,-73.405669
"61",302869,"21 Providence Pike # Rt","Putnam","CT",6260,"US",41.924411,-71.880192
"62",302902,"1107 E Main St","Meriden","CT",6450,"US",41.525936,-72.76695
"63",302917,"285 Boston Ave","Bridgeport","CT",6610,"US",41.200957,-73.184231
"64",302984,"979 Main St","Bridgeport","CT",6604,"US",41.177877,-73.189243
"65",303307,"135 Prospect St","Stamford","CT",6901,"US",41.059745,-73.533891
"66",303311,"25 Grassy Plain Rd","Bethel","CT",6801,"US",41.376866,-73.425716
"67",303317,"33 New Haven Rd","Seymour","CT",6483,"US",41.397181,-73.062397
"68",303318,"1315 Boston Post Rd","Madison","CT",6443,"US",41.274394,-72.553831
"69",303320,"1199 Foxon Rd","North Branford","CT",6471,"US",41.327778,-72.782567
"70",303851,"293 Elm St","West Haven","CT",6516,"US",41.275914,-72.952606
"71",304169,"305 Captain Thomas Blvd","West Haven","CT",6516,"US",41.259965,-72.949139
"72",304203,"596 Elm St","Windsor Locks","CT",6096,"US",41.930044,-72.669868
"73",304322,"1353 New Haven Ave","Milford","CT",6460,"US",41.228326,-72.995764
"74",304323,"1166 Burnside Ave","East Hartford","CT",6108,"US",41.784279,-72.588449
"75",304368,"458 Westport Ave","Norwalk","CT",6851,"US",41.126719,-73.387555
"76",304391,"136 Norwich Westerly Rd","North Stonington","CT",6359,"US",41.428588,-71.863487
"77",304445,"82 Newtown Rd","Danbury","CT",6810,"US",41.410131,-73.413781
"78",304578,"1843 Meriden Waterbury Tpke Rd","Milldale","CT",6467,"US",41.563894,-72.908624
"79",304611,"25 Albany Tpke","West Simsbury","CT",6092,"US",41.817429,-72.868394
"80",304715,"274 Franklin Ave","Hartford","CT",6114,"US",41.743068,-72.676049
"81",304717,"2536 Albany Ave","West Hartford","CT",6117,"US",41.785937,-72.747076
"82",304959,"1015 Farmington Ave","Farmington","CT",6032,"US",41.734047,-72.837184
"83",304966,"291 Ferry St","New Haven","CT",6513,"US",41.307876,-72.895115
"84",306074,"1234 Farmington Ave","West Hartford","CT",6107,"US",41.755012,-72.765974
"85",306078,"970 New Britain Ave","West Hartford","CT",6110,"US",41.730678,-72.718477
"86",306094,"5065 Main St","Trumbull","CT",6611,"US",41.229934,-73.225461
"87",306197,"35 Hazard Ave","Enfield","CT",6082,"US",41.9895,-72.582225
"88",306468,"171 Spencer St","Manchester","CT",6040,"US",41.767327,-72.568469
"89",306470,"3384 Berlin Tpke","Newington","CT",6111,"US",41.655249,-72.725384
"90",306504,"1205 Tolland Tpke","Manchester","CT",6040,"US",41.796825,-72.555232
"91",306589,"530 New Haven Ave","Derby","CT",6418,"US",41.312496,-73.057613
"92",306701,"209 Flanders Rd","East Lyme","CT",6333,"US",41.353425,-72.210238
"93",306803,"118 E Main St","New Britain","CT",6051,"US",41.670801,-72.779477
"94",306804,"1 Thompson Rd","East Windsor","CT",6088,"US",41.912658,-72.612878
"95",306973,"15 Pine St","Bristol","CT",6010,"US",41.666843,-72.921451
"96",307036,"152 Main St","Portland","CT",6480,"US",41.571762,-72.641853
"97",307138,"447 Monroe Tpke","Monroe","CT",6468,"US",41.314078,-73.218965
"98",307248,"63 Bank St","Waterbury","CT",6702,"US",41.554979,-73.040863
"99",307431,"60 Access Rd","Stratford","CT",6615,"US",41.170541,-73.128229
"100",307458,"484 Bridgeport Ave","Shelton","CT",6484,"US",41.288994,-73.112575
"101",307701,"7365 Main St","Stratford","CT",6497,"US",41.25338,-73.101638
"102",307717,"77 Main St N # 108","Southbury","CT",6488,"US",41.47815,-73.21628
"103",307828,"294 Foxon Blvd","New Haven","CT",6513,"US",41.321892,-72.87575
"104",307834,"770 Chapel St","New Haven","CT",6510,"US",41.304946,-72.923708
"105",307979,"985 Orange Ave","West Haven","CT",6516,"US",41.284603,-72.978923
"106",308054,"1910 Black Rock Tpke","Fairfield","CT",6432,"US",41.180657,-73.248028
"107",308055,"1533 Post Rd E","Westport","CT",6880,"US",41.13871,-73.310966
"108",308099,"1051 Long Ridge Rd","Stamford","CT",6903,"US",41.104356,-73.567063
"109",308136,"311 Main St","Terryville","CT",6786,"US",41.679658,-73.019669
"110",308171,"2234 Silas Deane Hwy","Rocky Hill","CT",6067,"US",41.667725,-72.641273
"111",308244,"6 Queen St","Newtown","CT",6470,"US",41.412021,-73.304345
"112",308421,"35 Danbury Rd","Wilton","CT",6897,"US",41.165174,-73.418297
"113",308535,"215 E Main St","Clinton","CT",6413,"US",41.273176,-72.506744
"114",308536,"60 Town St","Norwich","CT",6360,"US",41.547459,-72.093253
"115",308628,"255 E Main St","Meriden","CT",6450,"US",41.534244,-72.795043
"116",308629,"1950 State St","Hamden","CT",6517,"US",41.335533,-72.900629
"117",308693,"1044 Hope St","Stamford","CT",6907,"US",41.094238,-73.518258
"118",308707,"828 Hopmeadow St","Simsbury","CT",6070,"US",41.877616,-72.800624
"119",308753,"4 Rainbow Rd","East Granby","CT",6026,"US",41.942937,-72.725724
"120",308833,"19 East St","Plainville","CT",6062,"US",41.673107,-72.859129
"121",308834,"855 Sullivan Ave","South Windsor","CT",6074,"US",41.847231,-72.567854
"122",308853,"733 Bridgeport Ave","Shelton","CT",6484,"US",41.275029,-73.125322
"123",308876,"81 N Main St","Norwalk","CT",6854,"US",41.10139,-73.419525
"124",310025,"182 N Main St","Bristol","CT",6010,"US",41.675377,-72.946343
"125",310048,"883 High Ridge Rd","Stamford","CT",6905,"US",41.101726,-73.547725
"126",310107,"54 Whitney Ave","New Haven","CT",6510,"US",41.312064,-72.922382
"127",310109,"847 Forest Rd","Northford","CT",6472,"US",41.390813,-72.791954
"128",310120,"130 S Main St","New Britain","CT",6051,"US",41.660907,-72.779086
"129",310137,"750 Straits Tpke","Middlebury","CT",6762,"US",41.532079,-73.084873
"130",310186,"701 Farmington Ave","New Britain","CT",6053,"US",41.696767,-72.791217
"131",310189,"967 Post Rd","Darien","CT",6820,"US",41.076164,-73.471356
"132",310190,"15 Ethan Allen Hwy","Ridgefield","CT",6877,"US",41.265284,-73.440895
"133",310194,"81 Oakland St","Manchester","CT",6040,"US",41.796244,-72.520741
"134",310195,"799 Long Hill Rd","Groton","CT",6340,"US",41.347089,-72.052952
"135",310231,"2714 S Main St","Waterbury","CT",6706,"US",41.517862,-73.045789
"136",310243,"65 Lathrop Rd","Plainfield","CT",6374,"US",41.663281,-71.913363
"137",310247,"413 Cottage Grove Rd","Bloomfield","CT",6002,"US",41.817729,-72.716034
"138",310309,"1030 Silas Deane Hwy","Wethersfield","CT",6109,"US",41.694327,-72.656389
"139",310313,"214 Woodmont Rd","Milford","CT",6460,"US",41.237526,-73.020984
"140",310314,"545 Hazard Ave","Enfield","CT",6082,"US",41.985075,-72.514898
"141",310315,"747 Wolcott Rd","Wolcott","CT",6716,"US",41.60216,-72.986831
"142",310353,"141 Hebron Ave","Glastonbury","CT",6033,"US",41.713003,-72.605835
"143",310436,"682 S Colony Rd","Wallingford","CT",6492,"US",41.440973,-72.831452
"144",310437,"1095 Main St","Newington","CT",6111,"US",41.696891,-72.723051
"145",310466,"1618 Hayestown Ave","Danbury","CT",6810,"US",41.41245,-73.454055
"146",330000,"530 Washington Ave","North Haven","CT",6473,"US",41.417185,-72.840136
"147",330090,"322 E Main St","Torrington","CT",6790,"US",41.804732,-73.114725
"148",330092,"94 Main St","Windsor Locks","CT",6096,"US",41.931306,-72.628118
"149",330193,"1200 Boston Post Rd","Guilford","CT",6437,"US",41.287612,-72.689874
"150",330231,"864 Whalley Ave","New Haven","CT",6515,"US",41.326219,-72.959571
"151",330268,"327 Ruby Rd","Willington","CT",6279,"US",41.917739,-72.261449
"152",330326,"483 Providence Rd","Danielson","CT",6239,"US",41.797295,-71.908421
"153",330327,"889 State St","New Haven","CT",6511,"US",41.313896,-72.912036
"154",330347,"814 Derby Ave","Seymour","CT",6483,"US",41.360769,-73.093893
"155",330433,"38 Main St","Durham","CT",6422,"US",41.467822,-72.68004
"156",330434,"562 Enfield St","Enfield","CT",6082,"US",42.008562,-72.593224
"157",330435,"548 Cedar Street","Newington","CT",6111,"US",41.695361,-72.74733
"158",330464,"263 Pleasant Valley Rd","South Windsor","CT",6074,"US",41.819186,-72.610044
"159",330640,"1179 Chapel St","New Haven","CT",6511,"US",41.309014,-72.933544
"160",330641,"223 New Britain Rd","Berlin","CT",6037,"US",41.642589,-72.769804
"161",330801,"198 Essex Rd","Westbrook","CT",6498,"US",41.290283,-72.445002
"162",330826,"196 East Ave","Norwalk","CT",6855,"US",41.106687,-73.405466
"163",330837,"316 Boston Post Rd","Waterford","CT",6385,"US",41.350186,-72.15343
"164",330839,"207 East Main St","Branford","CT",6405,"US",41.289642,-72.799228
"165",330918,"737 N Main St","Norwich","CT",6360,"US",41.543213,-72.053452
"166",331022,"2550 Fairfield Ave","Bridgeport","CT",6605,"US",41.160608,-73.223737
"167",331028,"255 Kimberly Ave","New Haven","CT",6519,"US",41.285334,-72.936762
"168",331153,"134 N Eagleville Rd","Storrs Mansfield","CT",6268,"US",41.809467,-72.261634
"169",331172,"1276 E Main St","Torrington","CT",6790,"US",41.816208,-73.092607
"170",331174,"860 Portland Cobalt Rd","Portland","CT",6480,"US",41.576125,-72.607182
"171",331246,"746 Main St","Plantsville","CT",6479,"US",41.587413,-72.890069
"172",331287,"3300 Whitney Ave","Hamden","CT",6518,"US",41.414262,-72.902998
"173",331312,"234 Newington Ave","New Britain","CT",6051,"US",41.672225,-72.755789
"174",331432,"172 Bridge St","East Windsor","CT",6088,"US",41.930952,-72.606808
"175",331561,"56 Park Rd","West Hartford","CT",6119,"US",41.757165,-72.717107
"176",331774,"131 Brainard Rd","Hartford","CT",6114,"US",41.736979,-72.659805
"177",331805,"198 Leavenworth Rd","Shelton","CT",6484,"US",41.332416,-73.138726
"178",331844,"1662 Route 12","Gales Ferry","CT",6335,"US",41.428623,-72.082007
"179",331979,"977 Boston Post Rd","Westbrook","CT",6498,"US",41.282882,-72.454815
"180",331992,"1150 Honeyspot Rd","Stratford","CT",6615,"US",41.171648,-73.15199
"181",332127,"369 East Main St","Thomaston","CT",6787,"US",41.674437,-73.063947
"182",332152,"492 Ct Rte 2","Preston","CT",6365,"US",41.487299,-71.973637
"183",332153,"295 Spielman Hwy.","Burlington","CT",6013,"US",41.770411,-72.971539
"184",332290,"2210 Route 32","Montville","CT",6353,"US",41.485688,-72.100209
"185",332358,"435 Lewis Ave","Meriden","CT",6451,"US",41.549469,-72.800643
"186",332403,"594 New Haven Ave","Milford","CT",6460,"US",41.225474,-73.028914
"187",332776,"440 S Main St","Colchester","CT",6415,"US",41.566296,-72.324214
"188",332881,"448 Hartford Tpke","Vernon Rockville","CT",6066,"US",41.829183,-72.480099
"189",332907,"1101 N. Colony Rd","Wallingford","CT",6492,"US",41.497133,-72.810366
"190",332986,"217 Main St","Yalesville","CT",6492,"US",41.481935,-72.826716
"191",333005,"741 W Main St","New Britain","CT",6053,"US",41.666812,-72.807658
"192",333012,"348 Colt Highway","Farmington","CT",6032,"US",41.711206,-72.808428
"193",333013,"694 N Colony Rd","Wallingford","CT",6492,"US",41.478714,-72.812343
"194",334688,"3040 Main St","Glastonbury","CT",6033,"US",41.727356,-72.615835
"195",334689,"262 Meriden Waterbury Tpke","Southington","CT",6489,"US",41.557591,-72.853149
"196",334690,"42 Windsor Ave","Vernon Rockville","CT",6066,"US",41.867477,-72.468795
"197",334783,"19 Waterbury Road","Prospect","CT",6712,"US",41.505378,-72.980424
"198",334917,"21 Asylum St","Hartford","CT",6103,"US",41.766779,-72.674666
"199",335006,"144 Mountain Rd","Suffield","CT",6078,"US",41.983822,-72.656095
"200",335070,"815 Lafayette Blvd","Bridgeport","CT",6604,"US",41.173479,-73.192486
"201",335403,"18 Old Stratford Rd","Shelton","CT",6484,"US",41.276364,-73.119087
"202",335429,"230 Farmington Ave","Farmington","CT",6032,"US",41.73785,-72.795466
"203",335460,"22 W Stafford Rd","Stafford Springs","CT",6076,"US",41.964411,-72.319297
"204",335535,"41 S. Main St","West Hartford","CT",6107,"US",41.758978,-72.742875
"205",335690,"1273-1275 W. Broad St.","Stratford","CT",6615,"US",41.191977,-73.13644
"206",335694,"367 Bridgeport Avenue","Milford","CT",6460,"US",41.204228,-73.095809
"207",335701,"25 East High St","East Hampton","CT",6424,"US",41.583898,-72.502997
"208",335770,"11 Nott Highway","Ashford","CT",6278,"US",41.857074,-72.178935
"209",335771,"244 Center St","Manchester","CT",6040,"US",41.772729,-72.529436
"210",335773,"57 S Broad St","Meriden","CT",6450,"US",41.520252,-72.802378
"211",335785,"154 W Town St","Norwich","CT",6360,"US",41.553928,-72.106799
"212",335805,"255 Main St","Niantic","CT",6357,"US",41.323435,-72.193328
"213",335806,"89 Elm St","Enfield","CT",6082,"US",41.99814,-72.584449
"214",335862,"535 Watertown Ave","Waterbury","CT",6708,"US",41.566953,-73.060667
"215",336079,"297 Boston Post Rd","Orange","CT",6477,"US",41.265707,-73.002714
"216",336102,"704 Foxon Rd","East Haven","CT",6513,"US",41.321963,-72.853701
"217",336103,"195 Main Street","Norwalk","CT",6851,"US",41.127062,-73.422149
"218",336129,"411-D Universal Dr","North Haven","CT",6473,"US",41.356845,-72.871861
"219",336139,"310 South Main St","Cheshire","CT",6410,"US",41.494163,-72.903592
"220",336142,"39 Pershing Dr","Ansonia","CT",6401,"US",41.334069,-73.083807
"221",336193,"265 Washington St.","Hartford","CT",6106,"US",41.754046,-72.682883
"222",336195,"503 Windsor Ave","Windsor","CT",6095,"US",41.819037,-72.656983
"223",336361,"407 Main St","Danbury","CT",6810,"US",41.40304,-73.459047
"224",336522,"450 Main Street","Stamford","CT",6901,"US",41.053227,-73.539765
"225",336524,"556 Boston Post Rd","Guilford","CT",6437,"US",41.288634,-72.666832
"226",336525,"25 New Haven Ave","Derby","CT",6418,"US",41.314412,-73.079064
"227",336611,"110 Newtown Rd","Danbury","CT",6810,"US",41.415722,-73.408656
"228",336657,"12 Mill St","Unionville","CT",6085,"US",41.757015,-72.886961
"229",336672,"3 Main St","Winsted","CT",6098,"US",41.919112,-73.058135
"230",336679,"65 Merrow Rd","Tolland","CT",6084,"US",41.865535,-72.362659
"231",336682,"320 Main St","East Haven","CT",6512,"US",41.278992,-72.874428
"232",336743,"1113 Farmington Avenue","Berlin","CT",6037,"US",41.629956,-72.758391
"233",336798,"470 Derby Ave","West Haven","CT",6516,"US",41.306372,-72.971003
"234",336838,"3516 Main St","Coventry","CT",6238,"US",41.797284,-72.36932
"235",336859,"149 New Britain Ave","Plainville","CT",6062,"US",41.677956,-72.846363
"236",336890,"30 Station Pl","Stamford","CT",6901,"US",41.045725,-73.541502
"237",337312,"175 Broad St","New London","CT",6320,"US",41.359115,-72.105519
"238",337477,"1677 Meriden Rd","Wolcott","CT",6716,"US",41.555537,-72.956675
"239",337479,"427 Howe Ave","Shelton","CT",6484,"US",41.317061,-73.093007
"240",337597,"1750 Berlin Tpk","Wethersfield","CT",6109,"US",41.707129,-72.700405
"241",337618,"1 Kirby Rd","Cromwell","CT",6416,"US",41.605139,-72.707828
"242",337619,"1527 Pleasant Vally Rd","Manchester","CT",6040,"US",41.805849,-72.555707
"243",337711,"1659 Storrs Rd","Storrs Mansfield","CT",6268,"US",41.82752,-72.267187
"244",337766,"150 Park Ave","Hartford","CT",6108,"US",41.758487,-72.693695
"245",337768,"2335 Dixwell Ave","Hamden","CT",6514,"US",41.374327,-72.915746
"246",337861,"215 Glastonbury Blvd","Glastonbury","CT",6033,"US",41.721197,-72.623226
"247",337866,"747 Pine St","Bristol","CT",6010,"US",41.669037,-72.894478
"248",337978,"495 Main St","New Hartford","CT",6057,"US",41.877179,-72.978047
"249",338047,"385 Connecticut Ave","Norwalk","CT",6854,"US",41.101073,-73.438779
"250",338048,"380 Main Ave","Norwalk","CT",6851,"US",41.141345,-73.424199
"251",338053,"898 Bridgeport Ave","Shelton","CT",6484,"US",41.264462,-73.132115
"252",338056,"100 Quality Street","Trumbull","CT",6611,"US",41.255558,-73.217009
"253",338057,"200 East Main St","Stratford","CT",6614,"US",41.202238,-73.116333
"254",338068,"52 Danbury Rd","Ridgefield","CT",6877,"US",41.290618,-73.496201
"255",338122,"2601 Berlin Tpk","Newington","CT",6111,"US",41.679953,-72.712559
"256",338124,"398 Chase Ave","Waterbury","CT",6704,"US",41.582934,-73.036893
"257",338170,"33 Leetes Island Rd","Branford","CT",6405,"US",41.296891,-72.765736
"258",338179,"790 West St","Southington","CT",6489,"US",41.609442,-72.899285
"259",338369,"1264 Farmington Ave","Bristol","CT",6010,"US",41.697966,-72.901596
"260",338536,"859 Boston Post Rd","Milford","CT",6460,"US",41.232049,-73.053025
"261",338639,"497 Route 6","Andover","CT",6232,"US",41.732901,-72.356867
"262",338738,"307 Boston Post Rd","Windham","CT",6256,"US",41.738319,-72.181023
"263",338792,"177 Clinton St.","Killingworth","CT",6419,"US",41.349826,-72.560569
"264",338879,"999 Main St S","Southbury","CT",6488,"US",41.458596,-73.236572
"265",338880,"12 South Rd","Somers","CT",6071,"US",41.98426,-72.447982
"266",339083,"242 Trumbull St","Hartford","CT",6103,"US",41.768097,-72.675404
"267",339303,"135 Main St","Monroe","CT",6468,"US",41.303353,-73.254045
"268",339574,"77 Ella Grasso Tpke","Windsor Locks","CT",6096,"US",41.92011,-72.671129
"269",339575,"323 Whalley Ave","New Haven","CT",6511,"US",41.317171,-72.943575
"270",339577,"700 Poquonock Ave","Windsor","CT",6095,"US",41.872774,-72.660332
"271",339578,"354 Roosevelt Dr","Seymour","CT",6483,"US",41.365596,-73.14291
"272",339668,"1253 New Britain Ave","West Hartford","CT",6110,"US",41.731538,-72.743866
"273",339773,"575 Bank St","Waterbury","CT",6708,"US",41.548503,-73.043371
"274",339827,"1635 Boston Post Rd","Old Saybrook","CT",6475,"US",41.286617,-72.416305
"275",340041,"650 West Ave","Norwalk","CT",6850,"US",41.114302,-73.415434
"276",340071,"160 Kukas Ln","Waterbury","CT",6705,"US",41.537454,-73.004459
"277",340114,"6 Colt Highway","Farmington","CT",6032,"US",41.705573,-72.846692
"278",340202,"349 Main St.","Durham","CT",6422,"US",41.484798,-72.681504
"279",340241,"109 Main St","Hebron","CT",6248,"US",41.659003,-72.36356
"280",340255,"210 Demming St","Manchester","CT",6040,"US",41.81421,-72.52869
"281",340285,"221 Willimantic Rd","Columbia","CT",6237,"US",41.722332,-72.286322
"282",340286,"1575 Main St","Willimantic","CT",6226,"US",41.721362,-72.237744
"283",340288,"114 River Rd","Lisbon","CT",6351,"US",41.59071,-71.991281
"284",340293,"1537 Stanley St.","New Britain","CT",6053,"US",41.688204,-72.769958
"285",340368,"75 E. Main St","Avon","CT",6001,"US",41.807312,-72.824295
"286",340369,"3250 Main St","Hartford","CT",6120,"US",41.795685,-72.663224
"287",340418,"325 Woodstock Ave","Putnam","CT",6260,"US",41.928801,-71.923445
"288",340502,"24 Shunpike Rd","Cromwell","CT",6416,"US",41.600131,-72.676286
"289",340506,"967 First Ave","West Haven","CT",6516,"US",41.288288,-72.957345
"290",340508,"2005 Berlin Turnpike","Berlin","CT",6037,"US",41.597576,-72.75425
"291",340509,"75 Poquonnock Rd.","Groton","CT",6340,"US",41.34731,-72.076233
"292",340513,"639 Route 12","Groton","CT",6340,"US",41.379173,-72.075854
"293",340514,"7 Mill Pond Rd","Granby","CT",6035,"US",41.934046,-72.789072
"294",340560,"528 Main St.","West Haven","CT",6516,"US",41.269628,-72.958393
"295",340561,"2 Norfolk Rd","Torrington","CT",6790,"US",41.818389,-73.14497
"296",340582,"7 Glenwood Rd","Clinton","CT",6413,"US",41.289169,-72.52837
"297",340593,"50 E. Main St","Plainfield","CT",6374,"US",41.719518,-71.8981
"298",340600,"786 Hamilton Ave","Waterbury","CT",6706,"US",41.539998,-73.02123
"299",340603,"832 Voluntown Rd","Griswold","CT",6351,"US",41.584781,-71.939542
"300",340822,"106 Route 32","North Franklin","CT",6254,"US",41.592412,-72.128774
"301",340844,"1015 West Main St.","New Britain","CT",6053,"US",41.668579,-72.817369
"302",340904,"490-528 West Main St","Meriden","CT",6450,"US",41.54029,-72.821382
"303",340950,"180 River Rd.","Lisbon","CT",6351,"US",41.584071,-71.995132
"304",340955,"474 Boston Post Rd","North Windham","CT",6256,"US",41.743738,-72.172028
"305",340959,"1100 New Haven Rd","Naugatuck","CT",6770,"US",41.468572,-73.023751
"306",340969,"801 Thompsonville Rd","Suffield","CT",6078,"US",41.996795,-72.616061
"307",341068,"949 Albany Ave","Hartford","CT",6112,"US",41.780549,-72.692071
"308",341069,"597 Farmington Ave","Bristol","CT",6010,"US",41.69047,-72.92403
"309",341141,"779 Newfield St","Middletown","CT",6457,"US",41.580376,-72.672943
"310",341294,"443 Hartford Rd","Manchester","CT",6040,"US",41.764547,-72.540823
"311",341296,"2490 Whitney Ave","Hamden","CT",6518,"US",41.387376,-72.900677
"312",341357,"767 Cromwell Ave","Rocky Hill","CT",6067,"US",41.64982,-72.679324
"313",341358,"903-905 Blue Hills Ave","Bloomfield","CT",6002,"US",41.81455,-72.695089
"314",341461,"420 Buckland Hills Dr","Manchester","CT",6042,"US",41.80664,-72.538252
"315",341462,"680 Connecticut Ave","Norwalk","CT",6854,"US",41.095495,-73.449421
"316",341476,"125 Danbury Rd","Ridgefield","CT",6877,"US",41.294444,-73.494764
"317",341477,"538 West Main St","Norwich","CT",6360,"US",41.517347,-72.097667
"318",341502,"129 Weston St","Hartford","CT",6120,"US",41.790025,-72.661921
"319",341507,"905 Farmington Ave","West Hartford","CT",6119,"US",41.762951,-72.73785
"320",341508,"380 Colman St","New London","CT",6320,"US",41.359264,-72.11608
"321",341568,"440 Riverside Rd","Thompson","CT",6277,"US",41.958513,-71.884886
"322",341698,"3355 Post Rd","Southport","CT",6890,"US",41.138253,-73.291038
"323",341699,"782 Federal Rd","Brookfield","CT",6804,"US",41.479917,-73.4091
"324",341723,"220 Salem Turnpike","Norwich","CT",6360,"US",41.50511,-72.12277
"325",341798,"424 Boston Post Rd","New Haven","CT",6516,"US",41.291113,-72.96432
"326",341800,"750 Straits Tpk","Watertown","CT",6708,"US",41.571376,-73.099638
"327",341876,"20 Central Row","Hartford","CT",6103,"US",41.765609,-72.672455
"328",341877,"648 S. Main St","Middletown","CT",6457,"US",41.540019,-72.652871
"329",341878,"1949 Silas Deane Highway","Rocky Hill","CT",6067,"US",41.673862,-72.647289
"330",341886,"295 Blake St","New Haven","CT",6515,"US",41.327413,-72.953125
"331",341888,"161 Berlin Rd","Cromwell","CT",6416,"US",41.607033,-72.712289
"332",341968,"284 Farmington Ave","Plainville","CT",6062,"US",41.686408,-72.852409
"333",342004,"319 Washington Ave","North Haven","CT",6473,"US",41.404208,-72.84722
"334",342020,"416 Silas Dean Hwy","Wethersfield","CT",6109,"US",41.715205,-72.664513
"335",342022,"2414 Gold Star Hwy","Groton","CT",6340,"US",41.389952,-71.98761
"336",342031,"110 Brainard Rd","Hartford","CT",6114,"US",41.736898,-72.659926
"337",342087,"2 Lake Avenue Ext","Danbury","CT",6811,"US",41.387383,-73.478109
"338",342092,"42 A/B Williams Ave","Mystic","CT",6355,"US",41.349041,-71.957878
"339",342095,"147 N. Washington St","Plainville","CT",6062,"US",41.675439,-72.876948
"340",342169,"485 Main St","Hartford","CT",6103,"US",41.763083,-72.674223
"341",342255,"310 Elm St","Stamford","CT",6902,"US",41.051259,-73.528839
"342",342289,"15 Hemmingway Ave","East Haven","CT",6512,"US",41.267002,-72.872114
"343",342291,"1399 Dixwell Ave","Hamden","CT",6514,"US",41.35094,-72.931298
"344",342410,"37 Route 2","Preston","CT",6365,"US",41.513229,-72.046961
"345",342434,"201 Saybrook Rd","Higganum","CT",6441,"US",41.500051,-72.567244
"346",342462,"2103 Storrs Rd","Mansfield","CT",6268,"US",41.834807,-72.307091
"347",342508,"1100 Berlin Tpke","Berlin","CT",6037,"US",41.620599,-72.742552
"348",342510,"216 South Main St","East Windsor","CT",6088,"US",41.879643,-72.609155
"349",342511,"100 Constitution Plz","Hartford","CT",6103,"US",41.767417,-72.670862
"350",342512,"613 Washington St","Middletown","CT",6457,"US",41.555128,-72.671834
"351",342513,"1041 South Main St.","Cheshire","CT",6410,"US",41.475879,-72.906613
"352",342517,"520 Talcottville Rd","Talcottville","CT",6066,"US",41.851039,-72.483256
"353",342595,"754 Maple Ave","Hartford","CT",6114,"US",41.73954,-72.684288
"354",342841,"5 South Main St.","Marlborough","CT",6447,"US",41.631604,-72.459153
"355",342880,"5 Westminster Rd","Canterbury","CT",6331,"US",41.698413,-71.971978
"356",342881,"2165 Boston Ave","Bridgeport","CT",6610,"US",41.192744,-73.154221
"357",342883,"1056 Poquonnock Rd","Groton","CT",6340,"US",41.346374,-72.048796
"358",342885,"2751 Main St","Glastonbury","CT",6033,"US",41.717662,-72.613437
"359",342989,"1037 Boulevard","West Hartford","CT",6119,"US",41.760107,-72.716428
"360",343078,"384 State St","North Haven","CT",6473,"US",41.367049,-72.886839
"361",343187,"979 Main St","Stamford","CT",6902,"US",41.056303,-73.52015
"362",343272,"319 Kennedy Dr","Putnam","CT",6260,"US",41.921044,-71.907096
"363",343274,"500 Foxon Rd","New Haven","CT",6513,"US",41.320485,-72.868083
"364",343275,"1565 Watertown Ave","Waterbury","CT",6708,"US",41.582483,-73.072766
"365",343296,"187 Willimantic Rd","Chaplin","CT",6235,"US",41.758851,-72.1443
"366",343310,"17 North Rd","East Windsor","CT",6088,"US",41.93185,-72.601735
"367",343320,"318 Adams St","Manchester","CT",6040,"US",41.784726,-72.550392
"368",343417,"189 Forbes Rd","New Haven","CT",6512,"US",41.294265,-72.89991
"369",343578,"975 Kings Hwy","Fairfield","CT",6825,"US",41.166454,-73.233621
"370",343661,"17 Whitehall Ave","Mystic","CT",6355,"US",41.376733,-71.958226
"371",343734,"25 Albany Ave","Hartford","CT",6120,"US",41.774158,-72.678352
"372",343783,"30 Lafayette Sq","Vernon","CT",6066,"US",41.859751,-72.430163
"373",343824,"850 Wolcott Rd","Waterbury","CT",6705,"US",41.569473,-73.006528
"374",343831,"365 Capitol Ave","Hartford","CT",6106,"US",41.763671,-72.688129
"375",343853,"738 Middletown Rd","Colchester","CT",6415,"US",41.545683,-72.413777
"376",343874,"21 Brewster Rd","Bristol","CT",6010,"US",41.67621,-72.9363
"377",343877,"195 S. Main St","Torrington","CT",6790,"US",41.796407,-73.120309
"378",343880,"164 Linwood Ave","Colchester","CT",6415,"US",41.571598,-72.3373
"379",343890,"280 Washington Ave","Bridgeport","CT",6604,"US",41.178376,-73.195829
"380",343902,"3 E. Main St","North Canaan","CT",6018,"US",42.024399,-73.323618
"381",343903,"1001 Day Hill Rd","Windsor","CT",6095,"US",41.87695,-72.70459
"382",343904,"1 Union Pl","Hartford","CT",6103,"US",41.76873,-72.68158
"383",343914,"900 Boston Post Rd","Guilford","CT",6437,"US",41.288376,-72.679568
"384",343973,"21 Brewster Rd","Bristol","CT",6010,"US",41.675955,-72.935703
"385",344072,"105 Derby Ave","New Haven","CT",6511,"US",41.310977,-72.9496
"386",344103,"16 Kimberly Ave","New Haven","CT",6519,"US",41.291566,-72.93288
"387",344193,"606 Post Rd","Westport","CT",6880,"US",41.138148,-73.344187
"388",344248,"10 Schoephoester Rd","Windsor Locks","CT",6096,"US",41.935767,-72.684522
"389",344249,"10 Schoephoester Rd","Windsor Locks","CT",6096,"US",41.938433,-72.689185
"390",344288,"529 North Ave","Bridgeport","CT",6606,"US",41.196312,-73.192868
"391",344319,"105 Meriden Rd","Waterbury","CT",6705,"US",41.54951,-73.01519
"392",344373,"500 West Farms Mall","West Hartford","CT",6110,"US",41.724014,-72.762913
"393",344418,"1758 E. Main St","Torrington","CT",6790,"US",41.82058,-73.08152
"394",344419,"155 Hazard Ave","Enfield","CT",6082,"US",41.988418,-72.556812
"395",344436,"541 Hartford Tpk","Dayville","CT",6241,"US",41.844043,-71.882978
"396",344438,"364 Silver Ln","East Hartford","CT",6118,"US",41.76258,-72.628443
"397",344440,"439 Ocean Ave","New London","CT",6320,"US",41.334337,-72.104961
"398",344441,"227 Main Street","Norwich","CT",6360,"US",41.524471,-72.07464
"399",344540,"203 Greenwood Ave","Bethel","CT",6801,"US",41.371809,-73.415042
"400",344729,"875 Windham Rd","South Windham","CT",6266,"US",41.677323,-72.168396
"401",344809,"23 Main St","Centerbrook","CT",6409,"US",41.35221,-72.409994
"402",344819,"307 Connecticut Ave","Norwalk","CT",6854,"US",41.101636,-73.436624
"403",344879,"56 Enfield St","Enfield","CT",6082,"US",42.023247,-72.58593
"404",344881,"106 Sisson Ave","Hartford","CT",6106,"US",41.760974,-72.706483
"405",344882,"245 Honeyspot Rd","Stratford","CT",6615,"US",41.181402,-73.14299
"406",344889,"568 Norwich Tpke","Uncasville","CT",6370,"US",41.441454,-72.106383
"407",344890,"113 Salem Tpke","Norwich","CT",6360,"US",41.512518,-72.111075
"408",344891,"107 River Rd","Lisbon","CT",6351,"US",41.590646,-71.991445
"409",344893,"364 E. Main St","Branford","CT",6405,"US",41.295386,-72.782856
"410",344894,"251 Main St","Voluntown","CT",6384,"US",41.574957,-71.863104
"411",344895,"242 Greenmanville Ave","Mystic","CT",6355,"US",41.372308,-71.960083
"412",344903,"407 Jackson St","Willimantic","CT",6226,"US",41.720589,-72.202765
"413",344905,"190 Main St","Deep River","CT",6417,"US",41.384179,-72.435395
"414",344906,"1450 Southford Rd","Southbury","CT",6488,"US",41.4641,-73.162508
"415",344944,"695 Main Street","Monroe","CT",6468,"US",41.338977,-73.263021
"416",345075,"338 Park Rd","West Hartford","CT",6119,"US",41.755844,-72.729263
"417",345087,"230 Roosevelt Dr","Monroe","CT",6468,"US",41.387228,-73.185869
"418",345113,"7 Backus Ave","Danbury","CT",6810,"US",41.38107,-73.47917
"419",345152,"1055 Huntington Tpke","Bridgeport","CT",6610,"US",41.222195,-73.168864
"420",345185,"1280 Gold Star Hwy","Groton","CT",6340,"US",41.383251,-72.026657
"421",345266,"99 New Canaan Ave","Norwalk","CT",6850,"US",41.127351,-73.432771
"422",345440,"236 W. Hill Rd","Newington","CT",6111,"US",41.716582,-72.737768
"423",345455,"275 Boston Post Rd","Milford","CT",6460,"US",41.222831,-73.072596
"424",345460,"1 Mohegan Sun Blvd","Uncasville","CT",6382,"US",41.4915,-72.09136
"425",345511,"370 Danbury Rd","New Milford","CT",6776,"US",41.530062,-73.423736
"426",345540,"2 Springside Ave","Danbury","CT",6810,"US",41.406994,-73.436712
"427",345549,"1675 Boston Post Rd","Guilford","CT",6437,"US",41.296038,-72.702311
"428",345665,"1053 Farmington Ave","Bristol","CT",6010,"US",41.69574,-72.908739
"429",345666,"1195 Hopmeadow Street","Simsbury","CT",6070,"US",41.898409,-72.786881
"430",345731,"122 Litchfield Rd","Harwinton","CT",6791,"US",41.770169,-73.070598
"431",345746,"21 Union St","Waterbury","CT",6706,"US",41.552747,-73.039365
"432",345855,"603 Danbury Rd","Ridgefield","CT",6877,"US",41.321839,-73.476659
"433",345982,"255A W. Middle Tpke","Manchester","CT",6040,"US",41.78164,-72.535756
"434",345983,"194 Kelsey St","Newington","CT",6111,"US",41.654088,-72.748772
"435",346018,"377 Boston Post Rd","Orange","CT",6477,"US",41.261487,-73.008047
"436",346198,"930 Chapel St","New Haven","CT",6510,"US",41.30654,-72.927213
"437",346319,"478 Wolcott Rd","Wolcott","CT",6716,"US",41.591958,-72.989377
"438",346389,"72 Bridge St","Naugatuck","CT",6770,"US",41.5009,-73.053063
"439",346409,"2000 W. Main St","Stamford","CT",6902,"US",41.048668,-73.563859
"440",346496,"3582 Main Street","Stratford","CT",6614,"US",41.208531,-73.130458
"441",346605,"82 Bridge Rd","Haddam","CT",6438,"US",41.449366,-72.473005
"442",346606,"50 Berlin Rd","Cromwell","CT",6416,"US",41.602169,-72.686177
"443",346607,"2368 Berlin Tpke","Newington","CT",6111,"US",41.686949,-72.706868
"444",346653,"39 Norwich-Westerly Rd","Ledyard","CT",6339,"US",41.473579,-71.955168
"445",346758,"6546 Main St","Trumbull","CT",6611,"US",41.27934,-73.22859
"446",346811,"19 Hickey Drive","Stonington","CT",6379,"US",41.40184,-71.847142
"447",346839,"433 Queen St","Southington","CT",6489,"US",41.62827,-72.873536
"448",347178,"623 W. Putnam Ave","Greenwich","CT",6830,"US",41.016794,-73.649285
"449",347591,"710 Water St","Bridgeport","CT",6604,"US",41.180279,-73.187641
"450",347715,"806 Hartford Tpke","Waterford","CT",6385,"US",41.371266,-72.136443
"451",347845,"Schoephoester Rd SW Concourse","Windsor Locks","CT",6096,"US",41.933158,-72.686971
"452",347999,"461 West Main ST","Cheshire","CT",6410,"US",41.507287,-72.911869
"453",348055,"86 Westcott Rd","Danielson","CT",6239,"US",41.809594,-71.874989
"454",348092,"177 Federal Rd","Brookfield","CT",6804,"US",41.44083,-73.405417
"455",348145,"893 E Main St","Meriden","CT",6450,"US",41.528002,-72.773665
"456",348356,"30 Statehouse Sq","Hartford","CT",6103,"US",41.766622,-72.672727
"457",348378,"1 Mohegan Sun Blvd","Uncasville","CT",6382,"US",41.49167,-72.09114
"458",348388,"1095 N Main St","Killingly","CT",6241,"US",41.840766,-71.876099
"459",348429,"23 Bridge Sq","Westport","CT",6880,"US",41.122351,-73.370195
"460",348754,"33 W Broad St","Stamford","CT",6902,"US",41.055604,-73.545717
"461",348967,"489 Middlebury Rd","Middlebury","CT",6762,"US",41.53753,-73.103966
"462",349027,"600 Main St","Bridgeport","CT",6604,"US",41.17314,-73.18709
"463",349048,"1003 Wolcott St","Waterbury","CT",6705,"US",41.568151,-73.006811
"464",349080,"39 Norwich Westerly Rd","Ledyard","CT",6339,"US",41.473579,-71.955168
"465",349090,"7 Village Green Dr","Litchfield","CT",6759,"US",41.745655,-73.201242
"466",349219,"142 Hopmeadow St","Weatogue","CT",6089,"US",41.83245,-72.818896
"467",349245,"570 Meriden Rd","Waterbury","CT",6705,"US",41.552691,-72.999896
"468",349246,"77 Stony Hill Rd","Bethel","CT",6801,"US",41.41368,-73.378627
"469",349395,"89 Park Ln","New Milford","CT",6776,"US",41.601464,-73.406707
"470",349414,"Rt 395 Northbound","Plainfield","CT",6374,"US",41.75411,-71.87708
"471",349415,"Rt 395 Southbound","Plainfield","CT",6374,"US",41.75409,-71.87852
"472",349416,"3000 Merritt Parkway","Greenwich","CT",6831,"US",41.04116,-73.67248
"473",349417,"2000 Merritt Parkway","Greenwich","CT",6831,"US",41.04116,-73.67289
"474",349418,"2 Connecticut Tpke W","Milford","CT",6460,"US",41.24669,-73.00961
"475",349419,"1 Connecticut Tpke E","Milford","CT",6460,"US",41.24626,-73.00873
"476",349420,"1 CT Turnpike West","Darien","CT",6820,"US",41.0674,-73.50429
"477",349421,"1 CT Turnpike East","Darien","CT",6820,"US",41.08069,-73.46169
"478",349422,"Wilbur Cross Pkwy S (CT Tpke)","North Haven","CT",6473,"US",41.39854,-72.869408
"479",349423,"16 Banton St","North Haven","CT",6473,"US",41.398122,-72.868734
"480",349424,"199 Congress St","Fairfield","CT",6825,"US",41.21886,-73.25588
"481",349425,"195 Congress St","Fairfield","CT",6825,"US",41.21889,-73.25636
"482",349428,"2 Wilbur Cross Parkway SB","Orange","CT",6477,"US",41.27981,-73.04855
"483",349429,"3 Wilbur Cross Parkway NB","Orange","CT",6477,"US",41.27999,-73.04797
"484",349432,"4 Connecticut Tpke W","Fairfield","CT",6825,"US",41.14779,-73.25667
"485",349434,"Rt 395 Southbound","Uncasville","CT",6382,"US",41.47121,-72.11684
"486",349435,"Interstate 95 Southbound","Branford","CT",6405,"US",41.28638,-72.83384
"487",349436,"Interstate 95 Northbound","Branford","CT",6405,"US",41.28571,-72.83359
"488",349450,"1249 W Main St","Waterbury","CT",6708,"US",41.552107,-73.063487
"489",349636,"1 New London Rd","Salem","CT",6420,"US",41.475441,-72.263915
"490",350237,"1 Mohegan Sun Blvd","Uncasville","CT",6382,"US",41.49139,-72.09171
"491",350330,"184 Sound Beach Ave","Old Greenwich","CT",6870,"US",41.032351,-73.56809
"492",350884,"1298 Blue Hills Ave","Bloomfield","CT",6002,"US",41.85567,-72.70589
"493",350952,"140 Albany Tpke","Canton","CT",6019,"US",41.825819,-72.896471
"494",351183,"563 Providence New London Tpke","North Stonington","CT",6359,"US",41.440925,-71.802066
"495",351250,"475 Flatbush Ave","Hartford","CT",6106,"US",41.74265,-72.710874
"496",351262,"255 Farmington Ave","Hartford","CT",6105,"US",41.767594,-72.696857
"497",351440,"88 Elm St","New Canaan","CT",6840,"US",41.146678,-73.493795
"498",351441,"423 Main St","Middletown","CT",6457,"US",41.56177,-72.651043
"499",351463,"135 Main St","New Britain","CT",6051,"US",41.666274,-72.781574
"500",351491,"330 Middle St","Bristol","CT",6010,"US",41.660553,-72.918052
"501",351568,"1096 West St","Southington","CT",6489,"US",41.618416,-72.899513
"502",351754,"625 Hartford Rd","New Britain","CT",6053,"US",41.715337,-72.763421
"503",351766,"1 Blachley Road","Stamford","CT",6902,"US",41.052246,-73.516178
"504",351793,"10 Main St #12","Danbury","CT",6810,"US",41.386445,-73.444158
"505",351895,"150 Rainbow Rd","East Granby","CT",6026,"US",41.927877,-72.707994
"506",351975,"610 Wauregan Rd","Danielson","CT",6239,"US",41.762669,-71.899855
"507",352115,"470 Main Ave","Norwalk","CT",6851,"US",41.15088,-73.424763
"508",353055,"168 W Main St","Niantic","CT",6357,"US",41.31841,-72.22708
"509",353517,"822 Lake Ave","Bristol","CT",6010,"US",41.64158,-72.923206
